#dP2020  1 13  0  0  0.00000000      97 __u+U IGS08 FIT  IAC
## 2088  86400.00000000   900.00000000 58861 0.0000000000000
+  115   C01C02C03C04C05C06C07C08C09C10C11C12C13C14C16C19C20
+        C21C22C23C24C25C26C27C28C29C30C32C33C34C35C36C37E01
+        E02E03E04E05E07E08E09E11E12E13E14E15E18E19E21E24E25
+        E26E27E30E31E33E36G01G02G03G04G05G06G07G08G09G10G11
+        G12G13G14G15G16G17G18G19G20G21G22G23G24G25G26G27G28
+        G29G30G31G32J01J02J03J07R01R02R03R04R05R07R08R09R11
+        R12R13R14R15R16R17R18R19R20R21R22R23R26  0  0  0  0
++        13 13 13 13 12  8  8  0  7  8  7  7  8  7  8  7  7
++         7  7  7  7  7  7  7  7  7  7  7  7  7  8  9  8  4
++         3  4  4  4  3  4  4  4  4  4  4  3  4  4  4  4  4
++         4  3  4  4  4  4  3  3  3  3  3  3  3  3  3  3  3
++         3  3  3  3  3  3  3  3  3  3  3  3  3  3  3  3  3
++         3  3  3  3  8  8  8 14  6  5  5  5  5  5  5  7  7
++         5  6  5  5  5  5  5  6  6  5  5  5  8  0  0  0  0
%c M  cc GPS ccc cccc cccc cccc cccc ccccc ccccc ccccc ccccc
%c cc cc ccc ccc cccc cccc cccc cccc ccccc ccccc ccccc ccccc
%f  1.2500000  1.025000000  0.00000000000  0.000000000000000
%f  0.0000000  0.000000000  0.00000000000  0.000000000000000
%i    0    0    0    0      0      0      0      0         0
%i    0    0    0    0      0      0      0      0         0
/* INFORMATION & ANALYSIS CENTER (IAC)            FINAL DATA
/* S/V CLOCKS ARE ALIGNED TO GNSS TIME                      
/* G:C1WC2W R:C1PC2P E:C1XC5X C:C2IC6I J:C1CC2S             
/* PCV:IGS14_2086 OL/AL:FES2004  NONE     YN ORB:CoN CLK:CoN
*  2020 01 13 23 15  0.00000000
PC01 -32290.930064  27097.194446   -746.210384    377.803306
PC02   4438.979846  41926.366698   1145.794432    612.721463
PC03 -14825.379428  39505.224341    386.165924    221.055794
PC04 -39604.126417  14404.934710   -336.294806   -429.986818
PC05  21883.686630  36050.681112   1363.604288   -178.377188
PC06  -9445.707649  36693.349412  19267.593342    261.965659
PC07 -14581.787301  22201.978097 -32624.091927     94.739001
PC08      0.000000      0.000000      0.000000 999999.999999
PC09  -1123.001503  41892.386091   6390.071469    259.265631
PC10   1502.730556  27009.585549 -32089.544503   -557.688281
PC11  -3229.508203  27495.885775   3330.770312   -119.422247
PC12 -13344.695069  19812.300822 -14360.746086    309.035075
PC13 -11761.367907  31304.098923  25600.727470    205.023647
PC14   4424.138540  20503.645136  18404.218609   -826.487694
PC16  -7312.356008  37653.492959  17750.470439   -850.278145
PC19 -13228.604482 -21615.494936 -11677.329091    297.190308
PC20   4208.407328 -16508.894059 -22095.076943   -553.974583
PC21 -19743.193550   1345.710590  19694.975265     22.431554
PC22 -23275.350048 -14319.305017   5720.810819   -673.626738
PC23  22245.674225   4493.590547 -16240.970295   -872.385886
PC24 -15389.317811  17139.138354 -15738.788471   -899.962249
PC25   5655.744602  15096.092034 -22782.194565   -480.502253
PC26 -26060.586032   9924.859886   -205.469844    532.947047
PC27  16254.587398 -10701.246331  19984.604252    260.080821
PC28  13518.919321  10399.919521  22093.552137    251.042246
PC29  -3860.115219 -25229.750197 -11280.023145    173.347236
PC30   8684.058693 -25715.137559   6446.200873    255.718511
PC32  19725.373106  -1499.731579 -19672.455314   -856.282843
PC33  13231.696800  21567.527696  11754.958154   -780.741015
PC34  -8556.941470  25874.097231  -6060.576759   -388.555120
PC35 -13871.737959 -10058.933613 -22012.487348   -763.997561
PC36  -5054.532351 -15312.128414  22797.800518   -848.008614
PC37  26433.312869  -8971.425929   -359.733703   -918.916570
PE01  20899.959642 -10414.945176  18196.727213   -773.025112
PE02 -20815.635811  10458.498684 -18251.259066    105.564360
PE03 -10895.567589  15111.547292  22992.675647   -254.764690
PE04  -4035.255262 -27084.035522 -11242.789725   -444.917970
PE05 -19600.147645  -5841.408720  21393.911107   -414.315065
PE07  16797.566932  23245.475624  -7307.739277   -326.436658
PE08   4433.414630  27061.645420  11124.045114   6235.177435
PE09 -16952.948894 -23118.819969   7397.307187   6189.682783
PE11  -9479.845524 -14403.355754 -24052.893435    783.690498
PE12   7228.255504 -25732.804189 -12691.088920   6002.829196
PE13   9300.698781  14536.973071  24062.200025    397.356257
PE14  12071.341562 -13059.919785  16025.846933   -866.892562
PE15  -6946.991445  25707.688246  12939.561352    880.934888
PE18 -19022.798592  10214.306554 -23945.460894   -963.497770
PE19  12137.066047 -13057.544057 -23632.492161     -1.975438
PE21  29540.490317   1534.020991   1179.405693   -576.852820
PE24 -20795.478382 -12884.549721  16635.994675   5664.569458
PE25 -29533.721497  -1605.079256  -1071.620265   -501.079028
PE26  20355.179963  -5227.781285  20859.939803   3649.837904
PE27  20913.426569  12728.733511 -16640.971249    304.280384
PE30   -182.629156  16458.405580 -24609.593092   4226.800023
PE31    -24.720777 -16415.929930  24638.294152   -471.297823
PE33  19162.544162 -21796.134556   5828.294639   -470.982089
PE36 -20114.416458   5186.809456 -21074.260192    611.684101
PG01  10696.878049 -20074.689824 -13638.667628   -261.554675
PG02 -21645.182595  13510.162934  -6542.165271   -385.366914
PG03   -308.142907 -15971.237635 -21291.820802    -71.826484
PG04   1321.266665 -25783.512513  -6190.314272    -33.955933
PG05 -20266.313667   5102.408236  16367.427593     -6.059389
PG06 -20446.277240   1839.124154 -16819.001753   -181.402356
PG07  -6297.260809 -14495.149274  21580.624867   -191.498700
PG08   7349.011961 -20250.184081  15409.770752    -20.108970
PG09  -6678.325720 -25466.783700   3397.745541   -131.793325
PG10  23831.177007  11617.045821   3118.612103   -208.438113
PG11   8863.288542 -25036.880967  -3374.201957   -390.953217
PG12  -4587.425094  14264.622148 -22162.358951    162.640075
PG13 -12910.349375  12857.331382  19172.302914    -20.139196
PG14  15159.338601   2291.956364 -21375.739232    -38.945247
PG15  -5483.307968  21392.544641  14170.715719   -258.806121
PG16  20937.356309  -1772.628534  16314.841324   -113.290335
PG17 -13310.784265 -13773.242349 -17998.906218    198.118137
PG18  16108.730400 -20241.107774  -6304.362716    113.243728
PG19 -14763.818502  -5389.180628 -21701.904392   -212.880044
PG20  18048.527339  14519.146651  13081.893689    527.790977
PG21   9053.231130  13055.770798  22094.124950    -56.159693
PG22   8458.667951 -13717.118405 -20881.151263   -781.815133
PG23  -1000.205815 -25841.872511  -4730.657710   -143.284087
PG24 -11271.818440  21155.853766 -11221.319632     -7.534397
PG25   9983.604992  17225.861666 -17933.602848    -16.074068
PG26  25246.289613   2883.371501   8077.512467    126.716053
PG27  12879.901794  -9465.641711  21031.845127   -180.315574
PG28 -22887.327632 -13220.335468   2264.665359    745.432697
PG29   4383.997851  25961.250226   3387.279959     -6.806198
PG30 -16290.025481  -6262.663810  20101.063256   -128.623807
PG31  22030.796585  -3584.684475 -14772.766230    -16.353747
PG32  14915.239628  12400.488250 -18141.861722    184.123699
PJ01 -25611.758512  22362.975824  29995.774166   -325.588924
PJ02 -34728.040247  16599.949113 -12744.462748     -0.748561
PJ03 -19419.686424  31271.362485 -15771.907621     -0.114359
PJ07 -25336.960993  33703.444931     58.795332      0.053181
PR01  18384.687507  12212.270561 -12781.322339     55.580183
PR02   9207.274707  -5918.494387 -23008.969700    407.043676
PR03  -4491.694450 -18380.094007 -17046.784428      8.192372
PR04 -15578.948072 -20143.394444  -1435.199423     35.277285
PR05 -17682.690595 -10564.644470  15034.466489     43.064113
PR07   4918.470856  18676.638790  16716.068210    -31.965051
PR08  15475.926493  20229.908011   1574.086156     13.121653
PR09 -19530.143339   9750.391389 -13238.594932    111.293728
PR11  13670.256216   7627.338602 -20113.492092     -9.920923
PR12  24453.107182   -503.479373  -7268.118385     96.621925
PR13  21501.620797  -8784.719273  10530.312334    -33.498113
PR14   5990.483585 -11594.501024  21925.439608     47.070353
PR15 -12816.244371  -7859.232206  20623.005823    105.678800
PR16 -24463.231897   1067.309633   6887.883091     -0.957674
PR17   7452.033685 -24120.134946  -3776.511171    292.140008
PR18  -2137.238320 -17464.498522 -18422.228979     21.455650
PR19 -10371.422755  -2071.575018 -23203.498297    -73.885265
PR20 -13579.094966  16769.214013 -13623.993269   -401.429896
PR21  -7047.407872  24052.345256   4676.640957    -98.088055
PR22   3641.006933  15362.495294  20088.751044     -9.679200
PR23  12378.434772  -4713.077364  21799.821909    279.631186
PR26 -13455.711514  13738.151716 -16725.981989   -411.767018
EOF
